{
 "generated_at": "2026-07-04T07:46:40Z",
 "sources": [
  {
   "name": "CelesTrak",
   "url": "https://celestrak.org/NORAD/elements/",
   "license": "frei verfügbar; Attribution. Ursprünglich USSPACECOM/Space-Track."
  },
  {
   "name": "GCAT (J. McDowell, planet4589.org)",
   "url": "https://planet4589.org/space/gcat/",
   "license": "CC-BY 4.0"
  }
 ],
 "satellites": [
  {
   "norad": 60549,
   "name": "ICEYE-X40",
   "intl": "2024-149CK",
   "group": "sar",
   "gcat": {
    "class": "B",
    "category": "IMG-R",
    "owner": "ALYAH",
    "state": "UAE"
   },
   "omm": {
    "OBJECT_NAME": "ICEYE-X40",
    "OBJECT_ID": "2024-149CK",
    "EPOCH": "2026-07-02T11:10:53.690016",
    "MEAN_MOTION": 14.97992686,
    "ECCENTRICITY": 0.0005101,
    "INCLINATION": 97.68,
    "RA_OF_ASC_NODE": 259.7166,
    "ARG_OF_PERICENTER": 36.2399,
    "MEAN_ANOMALY": 323.9168,
    "EPHEMERIS_TYPE": 0,
    "CLASSIFICATION_TYPE": "U",
    "NORAD_CAT_ID": 60549,
    "ELEMENT_SET_NO": 999,
    "REV_AT_EPOCH": 10236,
    "BSTAR": 0.00016662,
    "MEAN_MOTION_DOT": 0.00001909,
    "MEAN_MOTION_DDOT": 0
   }
  },
  {
   "norad": 62700,
   "name": "ICEYE-X41",
   "intl": "2025-009CV",
   "group": "sar",
   "gcat": {
    "class": "B",
    "category": "IMG-R",
    "owner": "ICEUS",
    "state": "US"
   },
   "omm": {
    "OBJECT_NAME": "ICEYE-X41",
    "OBJECT_ID": "2025-009CV",
    "EPOCH": "2026-07-02T04:17:03.249312",
    "MEAN_MOTION": 14.96853309,
    "ECCENTRICITY": 0.00015433,
    "INCLINATION": 97.7077,
    "RA_OF_ASC_NODE": 262.4868,
    "ARG_OF_PERICENTER": 46.2008,
    "MEAN_ANOMALY": 313.9341,
    "EPHEMERIS_TYPE": 0,
    "CLASSIFICATION_TYPE": "U",
    "NORAD_CAT_ID": 62700,
    "ELEMENT_SET_NO": 999,
    "REV_AT_EPOCH": 7965,
    "BSTAR": 0.00041669724,
    "MEAN_MOTION_DOT": 0.0000472,
    "MEAN_MOTION_DDOT": 0
   }
  },
  {
   "norad": 62698,
   "name": "ICEYE-X42",
   "intl": "2025-009CT",
   "group": "sar",
   "gcat": {
    "class": "B",
    "category": "IMG-R",
    "owner": "SP42",
    "state": "UAE"
   },
   "omm": {
    "OBJECT_NAME": "ICEYE-X42",
    "OBJECT_ID": "2025-009CT",
    "EPOCH": "2026-07-02T03:56:18.723840",
    "MEAN_MOTION": 14.91845411,
    "ECCENTRICITY": 0.00013689,
    "INCLINATION": 97.7391,
    "RA_OF_ASC_NODE": 261.2085,
    "ARG_OF_PERICENTER": 98.3155,
    "MEAN_ANOMALY": 261.8219,
    "EPHEMERIS_TYPE": 0,
    "CLASSIFICATION_TYPE": "U",
    "NORAD_CAT_ID": 62698,
    "ELEMENT_SET_NO": 999,
    "REV_AT_EPOCH": 7952,
    "BSTAR": 0.00033406288,
    "MEAN_MOTION_DOT": 0.00003318,
    "MEAN_MOTION_DDOT": 0
   }
  },
  {
   "norad": 60539,
   "name": "ICEYE-X43",
   "intl": "2024-149BZ",
   "group": "sar",
   "gcat": {
    "class": "B",
    "category": "IMG-R",
    "owner": "FAB/ICEYE",
    "state": "BR"
   },
   "omm": {
    "OBJECT_NAME": "ICEYE-X43",
    "OBJECT_ID": "2024-149BZ",
    "EPOCH": "2026-07-02T04:11:41.090496",
    "MEAN_MOTION": 14.9972854,
    "ECCENTRICITY": 0.00076556,
    "INCLINATION": 97.6823,
    "RA_OF_ASC_NODE": 259.9372,
    "ARG_OF_PERICENTER": 39.0267,
    "MEAN_ANOMALY": 321.1508,
    "EPHEMERIS_TYPE": 0,
    "CLASSIFICATION_TYPE": "U",
    "NORAD_CAT_ID": 60539,
    "ELEMENT_SET_NO": 999,
    "REV_AT_EPOCH": 10236,
    "BSTAR": 0.00035086265,
    "MEAN_MOTION_DOT": 0.00004276,
    "MEAN_MOTION_DDOT": 0
   }
  },
  {
   "norad": 62707,
   "name": "ICEYE-X44",
   "intl": "2025-009DC",
   "group": "sar",
   "gcat": {
    "class": "B",
    "category": "IMG-R",
    "owner": "SP42",
    "state": "UAE"
   },
   "omm": {
    "OBJECT_NAME": "ICEYE-X44",
    "OBJECT_ID": "2025-009DC",
    "EPOCH": "2026-07-02T16:03:49.096800",
    "MEAN_MOTION": 14.96106643,
    "ECCENTRICITY": 0.00025009,
    "INCLINATION": 97.7055,
    "RA_OF_ASC_NODE": 262.5511,
    "ARG_OF_PERICENTER": 87.5645,
    "MEAN_ANOMALY": 272.5862,
    "EPHEMERIS_TYPE": 0,
    "CLASSIFICATION_TYPE": "U",
    "NORAD_CAT_ID": 62707,
    "ELEMENT_SET_NO": 999,
    "REV_AT_EPOCH": 10225,
    "BSTAR": 0.00029522149,
    "MEAN_MOTION_DOT": 0.00003263,
    "MEAN_MOTION_DDOT": 0
   }
  },
  {
   "norad": 62705,
   "name": "ICEYE-X45",
   "intl": "2025-009DA",
   "group": "sar",
   "gcat": {
    "class": "B",
    "category": "IMG-R",
    "owner": "ICEUS",
    "state": "US"
   },
   "omm": {
    "OBJECT_NAME": "ICEYE-X45",
    "OBJECT_ID": "2025-009DA",
    "EPOCH": "2026-07-02T15:55:51.998592",
    "MEAN_MOTION": 15.0083685,
    "ECCENTRICITY": 0.0001255,
    "INCLINATION": 97.838,
    "RA_OF_ASC_NODE": 270.4747,
    "ARG_OF_PERICENTER": 85.9985,
    "MEAN_ANOMALY": 274.1382,
    "EPHEMERIS_TYPE": 0,
    "CLASSIFICATION_TYPE": "U",
    "NORAD_CAT_ID": 62705,
    "ELEMENT_SET_NO": 999,
    "REV_AT_EPOCH": 8000,
    "BSTAR": 0.00037454319,
    "MEAN_MOTION_DOT": 0.000047,
    "MEAN_MOTION_DDOT": 0
   }
  },
  {
   "norad": 63258,
   "name": "ICEYE-X46",
   "intl": "2025-052BA",
   "group": "sar",
   "gcat": {
    "class": "B",
    "category": "IMG-R",
    "owner": "ICEYE",
    "state": "FI"
   },
   "omm": {
    "OBJECT_NAME": "ICEYE-X46",
    "OBJECT_ID": "2025-052BA",
    "EPOCH": "2026-07-02T09:52:57.531072",
    "MEAN_MOTION": 14.95326959,
    "ECCENTRICITY": 0.0001608,
    "INCLINATION": 97.6874,
    "RA_OF_ASC_NODE": 75.0126,
    "ARG_OF_PERICENTER": 79.9957,
    "MEAN_ANOMALY": 280.1445,
    "EPHEMERIS_TYPE": 0,
    "CLASSIFICATION_TYPE": "U",
    "NORAD_CAT_ID": 63258,
    "ELEMENT_SET_NO": 999,
    "REV_AT_EPOCH": 7092,
    "BSTAR": 0.000099525,
    "MEAN_MOTION_DOT": 0.00001041,
    "MEAN_MOTION_DDOT": 0
   }
  },
  {
   "norad": 62389,
   "name": "ICEYE-X47",
   "intl": "2024-247N",
   "group": "sar",
   "gcat": {
    "class": "B",
    "category": "IMG-R",
    "owner": "ICEYE",
    "state": "FI"
   },
   "omm": {
    "OBJECT_NAME": "ICEYE-X47",
    "OBJECT_ID": "2024-247N",
    "EPOCH": "2026-07-02T17:21:45.161568",
    "MEAN_MOTION": 15.13425245,
    "ECCENTRICITY": 0.00024379,
    "INCLINATION": 44.996,
    "RA_OF_ASC_NODE": 274.0132,
    "ARG_OF_PERICENTER": 300.4027,
    "MEAN_ANOMALY": 59.661,
    "EPHEMERIS_TYPE": 0,
    "CLASSIFICATION_TYPE": "U",
    "NORAD_CAT_ID": 62389,
    "ELEMENT_SET_NO": 999,
    "REV_AT_EPOCH": 8453,
    "BSTAR": 0.00035574962,
    "MEAN_MOTION_DOT": 0.0000621,
    "MEAN_MOTION_DDOT": 0
   }
  },
  {
   "norad": 63253,
   "name": "ICEYE-X48",
   "intl": "2025-052AV",
   "group": "sar",
   "gcat": {
    "class": "B",
    "category": "IMG-R",
    "owner": "ICEUS",
    "state": "US"
   },
   "omm": {
    "OBJECT_NAME": "ICEYE-X48",
    "OBJECT_ID": "2025-052AV",
    "EPOCH": "2026-07-02T10:04:12.798048",
    "MEAN_MOTION": 14.98070407,
    "ECCENTRICITY": 0.000253,
    "INCLINATION": 97.6848,
    "RA_OF_ASC_NODE": 75.3747,
    "ARG_OF_PERICENTER": 130.084,
    "MEAN_ANOMALY": 230.0604,
    "EPHEMERIS_TYPE": 0,
    "CLASSIFICATION_TYPE": "U",
    "NORAD_CAT_ID": 63253,
    "ELEMENT_SET_NO": 999,
    "REV_AT_EPOCH": 7095,
    "BSTAR": 0.00028227,
    "MEAN_MOTION_DOT": 0.00003281,
    "MEAN_MOTION_DDOT": 0
   }
  },
  {
   "norad": 62384,
   "name": "ICEYE-X49",
   "intl": "2024-247H",
   "group": "sar",
   "gcat": {
    "class": "B",
    "category": "IMG-R",
    "owner": "ICEYE",
    "state": "FI"
   },
   "omm": {
    "OBJECT_NAME": "ICEYE-X49",
    "OBJECT_ID": "2024-247H",
    "EPOCH": "2026-07-02T17:57:45.727488",
    "MEAN_MOTION": 15.13532911,
    "ECCENTRICITY": 0.00007713,
    "INCLINATION": 44.9974,
    "RA_OF_ASC_NODE": 274.2933,
    "ARG_OF_PERICENTER": 242.1155,
    "MEAN_ANOMALY": 117.9645,
    "EPHEMERIS_TYPE": 0,
    "CLASSIFICATION_TYPE": "U",
    "NORAD_CAT_ID": 62384,
    "ELEMENT_SET_NO": 999,
    "REV_AT_EPOCH": 8453,
    "BSTAR": 0.00026891965,
    "MEAN_MOTION_DOT": 0.00004646,
    "MEAN_MOTION_DDOT": 0
   }
  }
 ]
}
