ICEYE-X43               
1 60539U 24149BZ  26183.17478114  .00004276  00000+0  35086-3 0  9999
2 60539  97.6823 259.9372 0007655  39.0267 321.1508 14.99728540102368
ICEYE-X40               
1 60549U 24149CK  26183.46589919  .00001909  00000+0  16662-3 0  9997
2 60549  97.6800 259.7166 0005101  36.2399 323.9168 14.97992686102366
ICEYE-X49               
1 62384U 24247H   26183.74844592  .00004646  00000+0  26892-3 0  9994
2 62384  44.9974 274.2933 0000771 242.1155 117.9645 15.13532911 84531
ICEYE-X47               
1 62389U 24247N   26183.72343937  .00006210  00000+0  35575-3 0  9991
2 62389  44.9960 274.0132 0002437 300.4027  59.6610 15.13425245 84532
ICEYE-X42               
1 62698U 25009CT  26183.16410560  .00003318  00000+0  33406-3 0  9993
2 62698  97.7391 261.2085 0001368  98.3155 261.8219 14.91845411 79522
ICEYE-X41               
1 62700U 25009CV  26183.17850983  .00004720  00000+0  41670-3 0  9995
2 62700  97.7077 262.4868 0001543  46.2008 313.9341 14.96853309 79652
ICEYE-X45               
1 62705U 25009DA  26183.66379628  .00004700  00000+0  37454-3 0  9999
2 62705  97.8380 270.4747 0001255  85.9985 274.1382 15.00836850 80006
ICEYE-X44               
1 62707U 25009DC  26183.66931825  .00003263  00000+0  29522-3 0  9994
2 62707  97.7055 262.5511 0002500  87.5645 272.5862 14.96106643102253
ICEYE-X48               
1 63253U 25052AV  26183.41959257  .00003281  00000+0  28227-3 0  9992
2 63253  97.6848  75.3747 0002530 130.0840 230.0604 14.98070407 70958
ICEYE-X46               
1 63258U 25052BA  26183.41177698  .00001041  00000+0  99525-4 0  9990
2 63258  97.6874  75.0126 0001608  79.9957 280.1445 14.95326959 70924
